0 FENGYUN 1C DEB
1 31810U 99025CGY 13280.29312848  .00001410  00000-0  39364-3 0  1951
2 31810 098.7318 297.8942 0261621 059.3433 303.3313 14.29626069332668
0 FENGYUN 1C DEB
1 31810U 99025CGY 13283.30255682  .00001540  00000-0  42921-3 0  1966
2 31810 098.7321 300.9153 0261218 050.7029 311.7237 14.29636833333096
0 FENGYUN 1C DEB
1 31810U 99025CGY 13286.87183354  .00001585  00000-0  44145-3 0  1988
2 31810 098.7345 304.4991 0261178 040.1167 321.9083 14.29649029333602
0 FENGYUN 1C DEB
1 31810U 99025CGY 13288.83141594  .00001693  00000-0  47054-3 0  1999
2 31810 098.7341 306.4696 0261030 034.5225 327.2777 14.29657483333883
0 FENGYUN 1C DEB
1 31810U 99025CGY 13291.28087385  .00001971  00000-0  54428-3 0  2004
2 31810 098.7312 308.9199 0261806 026.9176 334.5702 14.29670709334232
0 FENGYUN 1C DEB
1 31810U 99025CGY 13292.89049762  .00002087  00000-0  57812-3 0  2019
2 31810 098.7324 310.5357 0260108 022.5099 338.7611 14.29679031334467
0 FENGYUN 1C DEB
1 31810U 99025CGY 13294.29015956  .00002205  00000-0  60882-3 0  2027
2 31810 098.7326 311.9449 0260760 018.4678 342.5759 14.29686721334669
